[{"OBJECT_NAME":"HAWK-2A","OBJECT_ID":"2021-006CW","EPOCH":"2026-03-09T16:18:25.817472","MEAN_MOTION":15.33304498,"ECCENTRICITY":0.00064498,"INCLINATION":97.2459,"RA_OF_ASC_NODE":115.6184,"ARG_OF_PERICENTER":187.1463,"MEAN_ANOMALY":172.9689,"EPHEMERIS_TYPE":0,"CLASSIFICATION_TYPE":"U","NORAD_CAT_ID":47505,"ELEMENT_SET_NO":999,"REV_AT_EPOCH":28424,"BSTAR":0.0002543136,"MEAN_MOTION_DOT":8.113e-5,"MEAN_MOTION_DDOT":0},{"OBJECT_NAME":"STARLINK-33741","OBJECT_ID":"2025-063C","EPOCH":"2026-03-09T22:22:49.256256","MEAN_MOTION":15.30211764,"ECCENTRICITY":0.00015811,"INCLINATION":53.1612,"RA_OF_ASC_NODE":51.5514,"ARG_OF_PERICENTER":84.6229,"MEAN_ANOMALY":275.4952,"EPHEMERIS_TYPE":0,"CLASSIFICATION_TYPE":"U","NORAD_CAT_ID":63365,"ELEMENT_SET_NO":999,"REV_AT_EPOCH":5479,"BSTAR":0.00098247916,"MEAN_MOTION_DOT":0.00028863,"MEAN_MOTION_DDOT":0}]
